2011 LV10,e,9.5844,77.0625,131.4642,1.327213,0.6446041,0.22871275,6.6353,05/23.0/2014,2000,H25.1,0.15
# From MPO281934
2011 LX10,e,22.5463,293.1072,306.4632,2.545145,0.2427366,0.49454916,288.6923,05/23.0/2014,2000,H16.5,0.15
# From MPO201160
2011 LS17,e,3.5458,46.3584,287.0289,2.431276,0.2599876,0.63491572,261.8636,05/23.0/2014,2000,H22.6,0.15
# From MPO252096
2011 LT17,e,20.8975,83.4973,270.5805,1.099699,0.8546597,0.28736857,138.4790,05/23.0/2014,2000,H21.6,0.15
# From MPO211773
2011 LA19,e,19.5864,98.9158,201.3977,2.931228,0.1963947,0.64704669,199.6144,05/23.0/2014,2000,H19.2,0.15
# From MPO200105
2011 LB19,e,24.8216,78.7062,219.1498,1.246857,0.7079119,0.14996947,12.7973,05/23.0/2014,2000,H24.1,0.15
# From MPO265011
2011 LC19,e,10.4521,219.5405,139.0150,3.205865,0.1717063,0.73017318,165.4116,05/23.0/2014,2000,H18.9,0.15
# From MPO219301
2011 LD19,e,70.0884,287.3212,62.1973,1.982584,0.3530665,0.43595130,357.9921,05/23.0/2014,2000,H18.0,0.15
# From MPO215184
2011 LJ19,e,1.5386,296.5506,30.3579,2.621150,0.2322557,0.62063684,232.2001,05/23.0/2014,2000,H21.4,0.15
# From MPO201160
2011 LK19,e,33.5617,254.6413,340.5802,1.663249,0.4594818,0.29993173,148.0872,05/23.0/2014,2000,H22.4,0.15
# From MPO254804
2011 LD20,e,11.6639,195.0481,166.1467,2.960118,0.1935265,0.50164658,196.8326,05/23.0/2014,2000,H16.3,0.15
# From MPO200956
2011 LJ20,e,41.5347,85.1822,209.2452,2.613685,0.2332514,0.51825556,239.4123,05/23.0/2014,2000,H20.6,0.15
# From MPO201160
2011 LY20,e,12.2214,81.6029,196.5540,1.658427,0.4614872,0.21214990,334.2093,05/19.0/2011,2000,H22.4,0.15
# From MPO215184
2011 LH21,e,6.8781,273.8173,37.0481,1.792423,0.4107177,0.41527323,76.1645,05/23.0/2014,2000,H20.2,0.15
# From MPO200958
2011 MC,e,24.7215,91.9584,225.2684,2.535808,0.2440785,0.61531925,250.1246,05/23.0/2014,2000,H21.4,0.15
# From MPO254804
2011 MD,e,2.4456,271.6277,6.0023,1.056301,0.9078675,0.03707524,240.9304,05/23.0/2014,2000,H28.0,0.15
# From MPO200962
2011 ME,e,24.8126,234.3907,166.8291,1.353508,0.6259117,0.72698023,266.9985,05/23.0/2014,2000,H19.5,0.15
# From MPO202513
2011 MF,e,8.5845,100.1132,189.1967,2.090111,0.3261745,0.46545450,342.6532,05/23.0/2014,2000,H22.6,0.15
# From MPO200962
2011 MJ,e,10.3906,93.8557,99.9676,1.221020,0.7304991,0.20803239,109.0184,05/23.0/2014,2000,H22.8,0.15
# From MPEC 2014-F70
2011 MK,e,7.5161,262.7999,15.2744,2.112422,0.3210207,0.46729310,341.0686,05/23.0/2014,2000,H20.7,0.15
# From MPO206204
2011 ML,e,1.6998,296.5637,353.3523,2.155169,0.3115172,0.43918903,326.7462,05/23.0/2014,2000,H22.5,0.15
# From MPO211773
2011 MT,e,13.6902,279.7792,344.6998,3.105730,0.1800772,0.57194993,195.9675,05/23.0/2014,2000,H19.3,0.15
# From MPO249984
2011 MU,e,7.2890,100.1269,281.7330,1.348963,0.6290773,0.66481771,269.3514,05/23.0/2014,2000,H20.2,0.15
# From MPO200963
2011 MV,e,41.2404,92.8679,49.1476,1.318027,0.6513547,0.18893896,77.9379,05/23.0/2014,2000,H21.1,0.15
# From MPO200964
2011 MX,e,13.4286,268.1638,297.3100,1.427949,0.5776103,0.39590523,284.6941,05/23.0/2014,2000,H26.9,0.15
# From MPO262259
2011 MU1,e,13.6072,120.6863,217.1314,1.601808,0.4861701,0.18523935,103.6455,05/23.0/2014,2000,H20.0,0.15
# From MPO207792
2011 MV1,e,6.5445,253.1550,66.7744,1.783038,0.4139645,0.30240601,61.7166,05/23.0/2014,2000,H20.3,0.15
# From MPO285735
2011 MW1,e,3.2611,277.1502,124.4755,1.055508,0.9088905,0.27508326,154.9681,05/23.0/2014,2000,H22.3,0.15
# From MPEC 2014-F20
2011 MB2,e,12.6097,64.7956,321.1162,1.044067,0.9238709,0.41549000,191.2343,05/23.0/2014,2000,H20.3,0.15
# From MPO200964
2011 MD2,e,8.5523,92.9414,142.4892,2.033217,0.3399605,0.47500989,12.2467,05/23.0/2014,2000,H23.5,0.15
# From MPO211773
2011 MW2,e,7.9213,138.0177,195.9492,2.280094,0.2862694,0.52346504,282.4761,05/23.0/2014,2000,H21.0,0.15
# From MPO206204
2011 MX2,e,41.6146,287.9425,16.6741,2.328150,0.2774519,0.46795888,289.1680,05/23.0/2014,2000,H20.5,0.15
# From MPO202514
2011 MY2,e,9.6035,270.6082,8.1885,2.157720,0.3109650,0.45339668,326.6774,05/23.0/2014,2000,H22.7,0.15
# From MPO202514
2011 MZ2,e,4.4881,275.4790,355.2429,1.559036,0.5063137,0.32231859,179.5689,05/23.0/2014,2000,H25.8,0.15
# From MPO202514
2011 MQ3,e,5.6761,274.0797,301.0900,1.122521,0.8287287,0.11017984,207.6502,05/23.0/2014,2000,H24.8,0.15
# From MPO202514
2011 MN4,e,8.2600,247.3295,40.7980,2.415049,0.2626123,0.47849092,270.7028,05/23.0/2014,2000,H21.8,0.15
# From MPO224722
2011 MO4,e,5.5909,304.5035,16.7410,2.376824,0.2689730,0.51546111,276.2502,05/23.0/2014,2000,H19.3,0.15
# From MPO230280
2011 MD5,e,10.7035,171.3477,223.3399,2.486289,0.2514066,0.60271036,218.2944,05/23.0/2014,2000,H17.8,0.15
# From MPO219302
2011 ME5,e,37.2803,105.5863,261.3659,1.901549,0.3758743,0.41995099,352.8408,05/23.0/2014,2000,H19.6,0.15
# From MPEC 2014-F74
2011 MD11,e,16.1808,15.9464,333.1895,2.499671,0.2493904,0.49813363,240.8476,05/23.0/2014,2000,H18.0,0.15
# From MPO202514
2011 ND,e,5.0706,139.7737,151.7950,2.262061,0.2896995,0.48355139,299.6629,05/23.0/2014,2000,H22.2,0.15
# From MPO271284
2011 NP,e,39.0461,295.1494,354.8669,1.592294,0.4905341,0.19512153,158.1657,05/23.0/2014,2000,H19.9,0.15
# From MPO206204
2011 NV,e,15.4740,282.0060,67.3116,1.839543,0.3950383,0.39211656,27.3429,05/23.0/2014,2000,H22.5,0.15
# From MPO224722
2011 NY,e,7.9819,247.5006,87.3492,2.278495,0.2865708,0.55670923,288.7693,05/23.0/2014,2000,H20.5,0.15
# From MPO224722
2011 NZ,e,6.9198,294.1387,15.8854,2.134733,0.3160012,0.43799761,323.5534,05/23.0/2014,2000,H20.8,0.15
# From MPO202514
2011 NP1,e,31.3145,277.8041,293.1114,1.651248,0.4644999,0.20268103,50.7761,06/28.0/2011,2000,H19.8,0.15
# From MPO215184
2011 OA,e,9.1599,280.9764,28.0588,2.158716,0.3107498,0.52027245,320.0134,05/23.0/2014,2000,H21.2,0.15
# From MPO242000
2011 OB,e,27.7454,106.2755,48.8673,0.903903,1.1468893,0.52408884,188.2336,05/23.0/2014,2000,H19.3,0.15
# From MPO211773
2011 OE,e,1.2304,279.7307,44.5292,2.283181,0.2856891,0.50178346,288.2655,05/23.0/2014,2000,H23.3,0.15
# From MPO279207
2011 OV4,e,7.4884,307.3269,29.7424,2.164744,0.3094526,0.41046392,308.9911,05/23.0/2014,2000,H18.6,0.15
# From MPO206205
2011 OW4,e,11.4936,254.1806,163.4033,1.944394,0.3635196,0.71731741,350.5173,05/23.0/2014,2000,H20.6,0.15
# From MPO208314
2011 OX4,e,2.4122,334.2331,325.1681,2.423412,0.2612541,0.55675496,269.8541,05/23.0/2014,2000,H23.6,0.15
# From MPO202287
2011 OY4,e,2.9425,329.0279,327.1534,2.168914,0.3085606,0.43772639,321.2555,05/23.0/2014,2000,H24.2,0.15
# From MPO271284
2011 OJ5,e,13.7027,128.7159,226.5069,1.600817,0.4866220,0.30200162,115.1563,05/23.0/2014,2000,H22.4,0.15
# From MPO206205
2011 OK5,e,12.8386,305.1163,172.0523,1.328779,0.6434649,0.15929733,138.4293,05/23.0/2014,2000,H21.5,0.15
# From MPO206205
2011 OL5,e,15.7324,105.7402,64.8364,1.221530,0.7300420,0.15848600,152.4170,05/23.0/2014,2000,H20.3,0.15
# From MPO234418
2011 OM5,e,12.4479,324.0409,13.3198,2.593607,0.2359651,0.54257762,234.4832,05/23.0/2014,2000,H21.0,0.15
# From MPO206205
2011 OP5,e,18.6212,332.4477,321.1859,2.651651,0.2282598,0.50563807,235.3048,05/23.0/2014,2000,H18.4,0.15
# From MPO235398
2011 OQ5,e,2.2880,241.2617,120.2007,2.343846,0.2746695,0.45519030,266.5797,05/23.0/2014,2000,H19.5,0.15
# From MPO208314
2011 OR5,e,4.7723,308.0214,314.2564,1.396094,0.5974919,0.28000848,279.3360,05/23.0/2014,2000,H25.9,0.15
# From MPO265796
2011 OA10,e,22.4257,128.6183,85.9404,1.611359,0.4818541,0.18979437,210.1428,05/23.0/2014,2000,H20.5,0.15
# From MPO208315
2011 OJ10,e,6.2422,321.5061,351.4484,2.142276,0.3143337,0.39892534,321.9431,05/23.0/2014,2000,H22.2,0.15
# From MPO288498
2011 OR15,e,5.0135,146.1745,250.9793,1.655636,0.4626543,0.44313150,81.5375,05/23.0/2014,2000,H21.0,0.15
# From MPO202290
2011 OS15,e,5.3620,111.8710,171.7592,1.734418,0.4314927,0.33358744,95.6045,05/23.0/2014,2000,H24.2,0.15
# From MPO206205
2011 OE16,e,6.7853,123.4626,201.9490,2.227872,0.2963936,0.47511778,298.5147,05/23.0/2014,2000,H23.8,0.15
# From MPO205905
2011 OV17,e,6.1817,138.0055,183.8123,2.108566,0.3219018,0.41287689,326.6407,05/23.0/2014,2000,H23.3,0.15
# From MPO208315
2011 OW17,e,28.0321,137.3383,121.0025,2.623802,0.2319036,0.52049214,255.1767,05/23.0/2014,2000,H21.3,0.15
# From MPO206205
2011 OX17,e,6.9977,348.2441,212.0204,2.211684,0.2996535,0.74688712,329.4572,05/23.0/2014,2000,H20.5,0.15
# From MPO234419
2011 OY17,e,9.2825,156.6305,189.8785,2.439072,0.2587421,0.56582309,256.5691,05/23.0/2014,2000,H21.9,0.15
# From MPO211774
2011 OC18,e,6.9077,149.9063,180.0027,2.109639,0.3216562,0.43860809,323.6425,05/23.0/2014,2000,H21.0,0.15
# From MPO202291
2011 OD18,e,4.3300,304.1117,332.6818,2.056481,0.3342081,0.52938829,351.1509,05/23.0/2014,2000,H26.5,0.15
# From MPO221223
2011 OV18,e,16.9259,271.3666,148.8803,1.630594,0.4733532,0.43922491,69.4908,05/23.0/2014,2000,H19.7,0.15
# From MPO234419
2011 ON24,e,13.9882,121.9102,279.8492,1.243665,0.7106387,0.17530154,297.6732,05/23.0/2014,2000,H22.9,0.15
# From MPO235398
2011 OP24,e,15.3381,144.9885,320.8368,1.245386,0.7091662,0.56967010,265.3276,05/23.0/2014,2000,H19.8,0.15
# From MPO277220
2011 OB26,e,1.7676,138.7199,234.9320,1.656581,0.4622588,0.47759082,91.2522,05/23.0/2014,2000,H25.6,0.15
# From MPO202293
2011 OE26,e,10.6606,315.3968,271.9481,3.123919,0.1785067,0.72755269,195.3578,05/23.0/2014,2000,H23.1,0.15
# From MPO206206
2011 OF26,e,6.0579,303.5579,103.2150,2.126734,0.3177858,0.72647230,308.8484,05/23.0/2014,2000,H24.8,0.15
# From MPO208315
2011 OJ26,e,13.6005,108.9446,287.2781,1.599847,0.4870643,0.11993923,286.9998,08/07.0/2011,2000,H21.0,0.15
# From MPO205911
2011 OJ45,e,0.7521,289.4191,135.1936,1.016829,0.9612401,0.20375969,173.8497,05/23.0/2014,2000,H26.0,0.15
# From MPO205912
2011 OK45,e,2.8740,300.0109,327.7594,1.291606,0.6714427,0.21452458,355.7498,05/23.0/2014,2000,H27.6,0.15
# From MPO222948
2011 OL51,e,4.3923,288.1949,110.4590,3.108247,0.1798585,0.63931942,165.1037,05/23.0/2014,2000,H19.8,0.15
# From MPO205913
2011 OB57,e,4.9134,296.2523,223.6650,0.951479,1.0619533,0.24268502,139.5637,05/23.0/2014,2000,H26.0,0.15
# From MPO205913
